{
  "type": "FeatureCollection",
  "features": [
    {
      "type": "Feature",
      "properties": {
        "name": "中国航线"
      },
      "geometry": {
        "type": "LineString",
        "coordinates": [
          [123.3197589, 37.4998675],
          [123.4275253, 35.4771385],
          [123.3877639, 33.206575],
          [123.0669971, 31.4281195],
          [122.8810996, 29.3196121],
          [121.9948195, 26.9184466],
          [120.2409315, 25.0511952],
          [118.4367492, 23.0278437],
          [116.7494985, 20.9163354],
          [113.7772919, 19.6195196],
          [111.9897978, 18.3083297],
          [110.9563476, 17.0594522],
          [110.6729528, 14.55104],
          [109.5717684, 9.6959537],
          [108.225579, 6.4580113],
          [106.6050346, 3.7435294],
          [105.3968375, 1.7735552],
          [104.2005665, 0.351425],
          [104.2005665, 0.351425]
        ]
      }
    },
    {
      "type": "Feature",
      "properties": {
        "name": "日本航线"
      },
      "geometry": {
        "type": "LineString",
        "coordinates": [
          [139.4412746, 34.8025035],
          [134.9768981, 31.1572325],
          [131.455765, 28.6138075],
          [127.6745953, 25.8896617],
          [121.4584583, 21.0564538],
          [116.923983, 18.0823282],
          [114.0600221, 14.1448564],
          [110.3078706, 8.8234073],
          [108.0358355, 6.2015444]
        ]
      }
    },
    {
      "type": "Feature",
      "properties": {
        "name": "美国航线"
      },
      "geometry": {
        "type": "LineString",
        "coordinates": [
          [113.5433055, 13.6602733],
          [113.6152023, 13.6350402],
          [120.9681817, 12.3078766],
          [135.3254305, 12.4270153],
          [150.5734195, 12.0547641],
          [158.8574369, 12.4221555],
          [168.2885161, 12.7083165],
          [177.1568467, 13.7974099],
          [189.4007624, 15.3001264],
          [203.0767281, 18.3505505]
        ]
      }
    },
    {
      "type": "Feature",
      "properties": {
        "name": "澳大利亚航线"
      },
      "geometry": {
        "type": "LineString",
        "coordinates": [
          [103.9418518, 0.6825981],
          [108.0336298, -2.4989347],
          [113.1195457, -5.0983456],
          [120.7247186, -6.6816458],
          [127.0859778, -7.2164672],
          [133.6890744, -8.4466652],
          [136.7552976, -9.0758713],
          [142.8278572, -9.9333607],
          [147.8870165, -11.9854104],
          [151.020878, -14.6347658],
          [152.9242746, -17.3392275],
          [154.7739259, -21.583731],
          [155.0653712, -26.1367108],
          [154.7781515, -31.5520957],
          [153.0646127, -35.1365376],
          [151.1744027, -36.548926],
          [150.1847034, -36.7027067]
        ]
      }
    },
    {
      "type": "Feature",
      "properties": {
        "name": "中东航线"
      },
      "geometry": {
        "type": "LineString",
        "coordinates": [
          [103.8946672, 0.7767475],
          [100.5622418, 3.1540833],
          [98.1645683, 6.3906017],
          [95.0134017, 7.9165107],
          [89.1103193, 6.6858395],
          [86.3237849, 5.9417142],
          [83.9997313, 4.7907241],
          [75.5199689, 3.3603959],
          [72.2228875, 6.1451761],
          [65.6203174, 15.4631596],
          [61.2406699, 21.1471043],
          [59.1137402, 24.1786979],
          [57.2851584, 25.0291763],
          [56.5478164, 26.3116779],
          [55.6325448, 26.4057934],
          [54.3462656, 26.1274258],
          [52.7872556, 26.0487175],
          [51.1711396, 27.1181757],
          [48.4785888, 29.5967493],
          [48.4102372, 29.9419006]
        ]
      }
    },
    {
      "type": "Feature",
      "properties": {
        "name": "南非航线"
      },
      "geometry": {
        "type": "LineString",
        "coordinates": [
          [83.8145868, 4.9285083],
          [76.8768215, -1.1959664],
          [70.6829462, -11.1900748],
          [63.899519, -16.5493905],
          [57.6383042, -21.1041969],
          [53.3509808, -24.5432013],
          [47.0435132, -28.9776073],
          [39.3647541, -31.6425006],
          [29.5639346, -33.9171088],
          [20.4228028, -36.8452098],
          [16.1612989, -35.5786053]
        ]
      }
    },
    {
      "type": "Feature",
      "properties": {
        "name": "东非航线"
      },
      "geometry": {
        "type": "LineString",
        "coordinates": [
          [83.1450518, 4.7738829],
          [77.5286327, 1.9866892],
          [69.6584219, -0.7595525],
          [56.8754324, -1.32255],
          [48.6754397, -2.3141388],
          [39.1579519, -4.9176291]
        ]
      }
    },
    {
      "type": "Feature",
      "properties": {
        "name": "欧洲航线"
      },
      "geometry": {
        "type": "LineString",
        "coordinates": [
          [82.2566012, 4.7174203],
          [76.6689926, 2.7096653],
          [70.6002718, 2.9216067],
          [57.9848073, 9.6057838],
          [55.5122186, 11.2868194],
          [51.1322849, 13.3444953],
          [48.5724887, 12.5702847],
          [44.7838374, 11.7538384],
          [42.991759, 13.0036917],
          [41.0793973, 16.1834443],
          [37.4390723, 21.8811898],
          [35.2860296, 25.5780661],
          [33.0177982, 28.7347603],
          [31.6496163, 30.9688148],
          [22.4970245, 34.0038781],
          [16.1115855, 35.8474474],
          [12.282006, 36.8430604],
          [9.2218131, 38.1782343],
          [2.3939551, 39.2574462],
          [-1.2701461, 39.9961476]
        ]
      }
    }
  ]
}
