{
  "type": "FeatureCollection",
  "name": "全球六大板块分界线",
  "features": [
    {
      "type": "Feature",
      "properties": {
        "labelFontSize": 20,
        "labelText": "南极洲板块",
        "pointType": 1
      },
      "geometry": {
        "type": "Point",
        "coordinates": [59.296570323723934, -88.006]
      }
    },
    {
      "type": "Feature",
      "properties": {
        "labelFontSize": 20,
        "labelText": "亚欧板块",
        "pointType": 1
      },
      "geometry": {
        "type": "Point",
        "coordinates": [85.013, 50.518]
      }
    },
    {
      "type": "Feature",
      "properties": {
        "labelFontSize": 20,
        "labelText": "印度洋板块",
        "pointType": 1
      },
      "geometry": {
        "type": "Point",
        "coordinates": [69.50753697867897, 12.579169848967782]
      }
    },
    {
      "type": "Feature",
      "properties": {
        "labelFontSize": 20,
        "labelText": "非洲板块",
        "pointType": 1
      },
      "geometry": {
        "type": "Point",
        "coordinates": [15.29113210352894, -7.655809597391014]
      }
    },
    {
      "type": "Feature",
      "properties": {
        "labelFontSize": 20,
        "labelText": "美洲板块",
        "pointType": 1
      },
      "geometry": {
        "type": "Point",
        "coordinates": [-72.54438517312252, 31.868940727102114]
      }
    },
    {
      "type": "Feature",
      "properties": {
        "labelFontSize": 20,
        "labelText": "太平洋板块",
        "pointType": 1
      },
      "geometry": {
        "type": "Point",
        "coordinates": [-164.153, 12.967]
      }
    },
    {
      "type": "Feature",
      "properties": {
        "fillColor": "#ff0000",
        "outlineWidth": 2
      },
      "geometry": {
        "type": "MultiLineString",
        "coordinates": [
          [
            [179.9990000000003, -64.15373],
            [176.8170956910005, -63.663713574],
            [174.0546016693, -63.3729248058],
            [172.5906081870004, -62.8500690609993],
            [171.4779052734, -62.45269775399991],
            [168.0269958730004, -61.34838477299996],
            [166.8767032620005, -60.9802913669995],
            [163.7478771210005, -59.8759994514],
            [160.9871463780005, -59.8759994514],
            [158.584646225007, -60.07620811500008],
            [158.4806804660007, -60.0035]
          ]
        ]
      }
    },
    {
      "type": "Feature",
      "properties": {
        "fillColor": "#ff0000",
        "outlineWidth": 2
      },
      "geometry": {
        "type": "MultiLineString",
        "coordinates": [
          [
            [-1.890819563999882, -55.29686367899992],
            [-1.86440541799981, -55.290832130999]
          ]
        ]
      }
    },
    {
      "type": "Feature",
      "properties": {
        "fillColor": "#ff0000",
        "outlineWidth": 2
      },
      "geometry": {
        "type": "MultiLineString",
        "coordinates": [
          [
            [159.8500310569855, -59.9686831406073],
            [158.2287165349267, -59.096261516833],
            [157.6226537254907, -58.21611934771569],
            [157.4991250000002, -57.28965390653919],
            [157.8697111764707, -56.11613101438234],
            [158.641765710784, -55.28231211732],
            [159.537348970585, -53.36761687222549],
            [160.6799896813722, -52.22497616144116],
            [162.1005700245107, -50.9896889065393],
            [163.8299721813726, -49.66175510751957],
            [164.6329088970593, -47.99411731340198],
            [165.3123168872552, -46.20295079379405],
            [166.7020150490191, -44.87501699477442],
            [170.191701544117, -42.6514999359501],
            [173.9284454901963, -42.3735603035983],
            [176.8931349019617, -41.354448318306],
            [178.7151836029418, -39.285342166345],
            [179.9504708578431, -37.67946873497051]
          ]
        ]
      }
    },
    {
      "type": "Feature",
      "properties": {
        "fillColor": "#ff0000",
        "outlineWidth": 2
      },
      "geometry": {
        "type": "MultiLineString",
        "coordinates": [
          [
            [-71.8363037109992, -23.06628417999998],
            [-72.7564697269996, -29.69201660199999],
            [-73.0780029299997, -32.3984985349991],
            [-73.7775878909993, -34.347290038999],
            [-74.4932861329992, -35.98309326199994],
            [-75.5764770509997, -40.4434814450001],
            [-76.3759765629992, -44.8406982419997],
            [-76.5758056644, -48.0886840819991],
            [-76.8756103519998, -49.53778076199991],
            [-76.1260986329995, -52.8856811519991],
            [-74.627075194999, -54.6845092771],
            [-70.3297119139995, -56.38348388699998],
            [-67.6850559551171, -56.9287184117475],
            [-66.2953577933521, -56.3110747842964],
            [-64.8130130874709, -55.3228449803742],
            [-60.43481445299992, -54.92529296899999],
            [-58.69834117570565, -55.29196279900248],
            [-56.9373779299994, -54.9965820309995],
            [-54.5897216799997, -54.5845947269995],
            [-52.8408203129996, -54.1848754879997],
            [-49.5927124019994, -53.3853759769992],
            [-45.995117187999, -53.33538818399993],
            [-43.6965942379998, -53.33538818399996],
            [-41.34802246099989, -53.7351074219999],
            [-39.81182861299984, -54.17041015599993],
            [-36.41497802699997, -54.5950927731],
            [-34.28088378899981, -54.86187744099992],
            [-30.99902343799998, -55.0737915048],
            [-28.24851034237219, -55.0449053480229],
            [-26.39557946001911, -55.6934311568454],
            [-25.06764566099958, -56.681660960767],
            [-24.23382676394073, -57.82430167155142],
            [-24.388237670802, -59.33752855880637],
            [-25.83970019531335, -60.10958309312],
            [-26.80157470699994, -60.47039794899998],
            [-25.60241699199985, -61.11999511699996],
            [-21.50500488299992, -60.52038574199991],
            [-18.10711669899983, -59.2711791989998],
            [-13.31011962899988, -58.7214965819999],
            [-8.46319580099983, -58.4716796879999],
            [-7.114013671999853, -57.9719848629999],
            [-5.91479492199989, -57.3223876949994],
            [-5.26098632799988, -56.44958496099991],
            [-3.76611328099985, -55.723388671999],
            [-1.890808104999908, -55.2968749999994],
            [-1.890819563999881, -55.29686367899995]
          ]
        ]
      }
    },
    {
      "type": "Feature",
      "properties": {
        "fillColor": "#ff0000",
        "outlineWidth": 2
      },
      "geometry": {
        "type": "MultiLineString",
        "coordinates": [
          [
            [-1.8644054179991, -55.2908321309995],
            [-0.995971679999915, -55.09252929699995],
            [0.008, -55.09301757799995],
            [0.005, -54.4484863279995],
            [0.502685547000164, -54.6752929689999],
            [1.11932373000017, -54.7385253909992],
            [1.814880371000184, -54.4484863279995],
            [2.76348877000009, -53.96380612],
            [3.36431884800015, -53.8057250979999],
            [4.24969482400015, -54.2167968749992],
            [5.41967773400014, -54.3115844735],
            [6.1942749020001, -54.2484130859999],
            [6.8425292970005, -53.7741088872],
            [8.02832031200011, -53.52111816399991],
            [9.06610107400016, -53.5083007809997],
            [9.95727539100017, -52.99938964799992],
            [11.19049072300016, -52.76220703099995],
            [12.59747314500017, -52.58831787099994],
            [13.38812255900017, -52.3670043949995],
            [15.12731933600006, -52.27209472699992],
            [16.23388671900006, -52.12982177699995],
            [16.92669677700016, -52.24719238299991],
            [19.77328169194188, -52.7905061078252],
            [23.35561473115757, -53.19197446566904],
            [25.42510986300012, -55.6223754879994],
            [26.81441904488307, -53.90226463723763],
            [27.33941612821645, -53.4081497352764],
            [28.05389404300017, -52.6437988279992],
            [28.3698730470007, -51.69598388699995],
            [33.60510253900003, -46.1337280269993],
            [37.20428466800016, -42.86169433599998],
            [40.11810302700018, -40.2127075200005],
            [40.8032836910004, -39.589721685],
            [45.0568847660003, -37.62658691400008],
            [48.7518920900003, -35.8593753],
            [52.58251953100015, -34.02740478499995],
            [57.49047851600001, -30.75537109399996],
            [61.61863745174601, -28.764168999982],
            [64.3980337752751, -27.83770355880617],
            [67.0539013733145, -26.787709392133],
            [69.3391827948834, -25.67595086272776]
          ]
        ]
      }
    },
    {
      "type": "Feature",
      "properties": {
        "fillColor": "#ff0000",
        "outlineWidth": 2
      },
      "geometry": {
        "type": "MultiLineString",
        "coordinates": [
          [
            [67.5356019040005, -20.99020445099993],
            [68.287958145002, -24.15010452299998],
            [71.2327404020006, -27.74927902199991],
            [74.5047168730002, -31.0212554929999],
            [77.7766933440007, -33.9660339366],
            [81.0486698150009, -36.91081237799999],
            [83.3390522, -38.87399864199997],
            [87.9198207860006, -41.49158096299991],
            [91.1917972560005, -43.1275691989992],
            [94.1365756990001, -44.76355743399996],
            [98.7173404690004, -46.3995456699999],
            [104.2797031400005, -48.3627319339999],
            [112.1324443819999, -50.32591628999998],
            [112.132472113, -50.3259189309997],
            [112.9773374610006, -50.4063823869994],
            [119.0035953520005, -50.98031234699999],
            [124.2387599949995, -50.9803123469999],
            [129.4739208220008, -50.98031234699996],
            [133.7274913790009, -50.9803123469996],
            [136.9994678500008, -51.30751037599999],
            [140.2714443210005, -52.94349861099996],
            [143.543420792001, -55.5610790249992],
            [146.4881992340001, -58.5058593749994],
            [148.3558750150003, -60.0093],
            [148.3558959960001, -60.0071],
            [158.480680466, -60.001]
          ]
        ]
      }
    },
    {
      "type": "Feature",
      "properties": {
        "fillColor": "#ff0000",
        "outlineWidth": 2
      },
      "geometry": {
        "type": "MultiLineString",
        "coordinates": [
          [
            [-180.009340016086, -18.9812729820599],
            [-179.3055304539991, -13.02559574199983],
            [-178.6497334069999, -12.30421898999996],
            [-177.9778715226733, -12.66104155053405],
            [-177.4837566207122, -12.75368809465167],
            [-177.4837566207123, -12.75368809465166],
            [-177.4837566207127, -12.75368809465169],
            [-176.5572911795359, -13.06250990837712],
            [-175.1984751991436, -13.61838917308305],
            [-173.530837405026, -14.14338625641648],
            [-172.5117254197317, -14.66838333974974],
            [-172.2955501501241, -15.31690914857326],
            [-172.2955501501249, -15.31690914857325],
            [-172.2337857873792, -15.90367059465178],
            [-172.2337857873794, -16.3360211338673],
            [-172.3264323314964, -17.38601530053409],
            [-172.7896650520849, -18.590420374065],
            [-173.1293690471829, -20.16541162406353],
            [-173.716130493261, -21.58599196720079],
            [-174.5190672089479, -23.13010103582827],
            [-175.1367108363982, -24.18009520249482],
            [-175.04406429222, -25.19920718778905],
            [-175.2911217432611, -26.09479044759292],
            [-175.569061375614, -27.05213807014195],
            [-175.7543544638491, -27.63889951622048],
            [-175.7543544638495, -27.63889951622042],
            [-175.7543544638499, -27.63889951622042],
            [-175.9087653707124, -28.47271841327922],
            [-176.2484693658104, -29.70800566818112],
            [-177.1749348069869, -31.90064054563212],
            [-177.8234606158101, -33.4756317956321],
            [-178.6263973314962, -35.1741517711226],
            [-179.2440409589471, -36.37855684465182],
            [-179.6455093167904, -37.0270826534759],
            [179.9504708578434, -37.67931405819348]
          ]
        ]
      }
    },
    {
      "type": "Feature",
      "properties": {
        "fillColor": "#ff0000",
        "outlineWidth": 2
      },
      "geometry": {
        "type": "MultiLineString",
        "coordinates": [
          [
            [131.38148517233, -0.3834443186099371],
            [131.5553582941, -0.107028154999967],
            [132.8638298782172, 0.195596582125395],
            [135.0949764027646, -0.238450764941114],
            [137.434392721354, -0.823515403168721],
            [143.2402428193934, -2.892621555129524],
            [145.67993514789, -4.15879099140407],
            [147.996098750769, -5.919075329639345],
            [150.71373071155, -6.22789714336489],
            [153.4313626723348, -5.76466442277659],
            [154.296063750766, -6.16613278061977],
            [154.5431212017465, -7.06171604042368],
            [156.5504629909623, -8.45141420218839],
            [160.2872069370404, -10.21169854042365],
            [161.8313160056681, -10.92198871199235],
            [163.4371894370403, -11.07639961885505],
            [164.4563014223348, -11.01463525610992],
            [165.4754134076296, -11.53963233944331],
            [166.062174853703, -12.43521559924722],
            [166.21658576057, -13.60873849140404],
            [166.6530558777, -15.75506284899992],
            [167.449699077, -17.48893333499995],
            [168.1994809050009, -19.08221972799998],
            [169.0429854660004, -20.81609021399991],
            [170.4488264000003, -22.17506978399995],
            [171.948390064005, -22.59682206399994],
            [173.9165673719991, -22.40937660599996],
            [176.0253287740005, -21.61273340999994],
            [178.9307333720007, -19.64455610200006],
            [179.9990000000006, -18.98849699899998]
          ]
        ]
      }
    },
    {
      "type": "Feature",
      "properties": {
        "fillColor": "#ff0000",
        "outlineWidth": 2
      },
      "geometry": {
        "type": "MultiLineString",
        "coordinates": [
          [
            [-179.99991, -64.15313],
            [-179.3207165719996, -64.1091194149994],
            [-173.7992550859996, -64.1091194149994],
            [-168.829940509999, -63.925069808999],
            [-164.2506073559994, -63.7554657895],
            [-163.8606259349991, -63.74102210999998],
            [-158.8789614200009, -63.1371842709999],
            [-157.7870175369998, -63.0048274997],
            [-157.7870031989992, -63.0048237039994],
            [-151.5293652539998, -61.34838867099997],
            [-149.2961000769997, -60.536292626999],
            [-147.4802929879995, -59.8759994519],
            [-144.4977045059997, -58.8385776031],
            [-143.2471730239991, -58.403610227999],
            [-137.7257115377, -57.2993164049991],
            [-137.5080494209999, -57.28527369099997],
            [-132.020202350992, -56.93121910099998],
            [-131.3662168330004, -56.83779273699995],
            [-128.1551815989993, -56.37907409599996],
            [-124.9722923459997, -55.74249598199999],
            [-123.5539624219991, -55.45882987999992],
            [-122.8302850289998, -55.1821297259999],
            [-117.2963101389998, -53.06619834799991],
            [-114.3515316969997, -51.0416622159999],
            [-112.3269955639998, -47.17663955599994],
            [-111.7748486519996, -41.47113037099991],
            [-112.142944049999, -36.6858654009999],
            [-112.8791386609992, -33.55703735299993],
            [-113.9808656919992, -30.09446761599993],
            [-114.167480182992, -29.5079650879992],
            [-114.9036747939997, -24.90674972499996],
            [-114.8231332, -23.13482467899996],
            [-114.719627094999, -20.85767745899992],
            [-114.7196047379993, -20.8576103889997],
            [-114.6632632069999, -20.68858579699996],
            [-113.2472378739997, -16.44050979599991],
            [-111.7748486519995, -13.31168174699995],
            [-108.0938755989999, -9.26261138899996],
            [-106.856871837999, -7.31874885999995],
            [-105.5171925549996, -5.213539123999934],
            [-104.2286766029996, -2.47544355899996],
            [-104.0448033339991, -2.084712980999918],
            [-104.0448033339996, -0.0601768479999279],
            [-104.044803333999, 2.51650428800008],
            [-104.0448033339991, 6.74962425300002],
            [-104.0448033339995, 9.32630729700008],
            [-104.044803333999, 12.45513343800013],
            [-104.0581318549997, 12.98827551700005],
            [-104.1697804459998, 17.4542293550004],
            [-104.1697794259997, 17.45427823300006]
          ]
        ]
      }
    },
    {
      "type": "Feature",
      "properties": {
        "fillColor": "#ff0000",
        "outlineWidth": 2
      },
      "geometry": {
        "type": "MultiLineString",
        "coordinates": [
          [
            [-104.1697794259995, 17.45427823300003],
            [-103.492675780999, 17.24047851600001],
            [-95.9465942379998, 14.84790039100005],
            [-92.0510970580583, 12.98854021570382],
            [-88.2525887492355, 11.62972423531178],
            [-86.744201659999, 9.69451904300001],
            [-84.2996695335482, 8.63415264217447],
            [-81.5511553913913, 6.96651484805672],
            [-80.0688106855099, 7.0282792108016],
            [-78.7717590678624, 7.52239411276269],
            [-77.9070579894314, 7.02827921080183],
            [-77.66000053845, 5.73122759315482],
            [-78.2780151369993, 4.35711669900005],
            [-79.5662841799998, 2.884704590000093],
            [-81.038696288996, 0.676086426000021],
            [-82.3270874019995, -2.6367797849999],
            [-82.3270874019992, -4.47729492199999],
            [-82.1430053710006, -7.05401611299992],
            [-81.2227783199998, -8.52642822299981],
            [-79.198181152, -12.02331542999999],
            [-77.1737060549998, -15.15209960899997],
            [-74.2288818359994, -17.36077880899994],
            [-72.3884277339994, -19.38531494099982],
            [-71.836303710999, -20.8576049799999],
            [-71.836303710999, -23.06628417999997]
          ]
        ]
      }
    },
    {
      "type": "Feature",
      "properties": {
        "fillColor": "#ff0000",
        "outlineWidth": 2
      },
      "geometry": {
        "type": "MultiLineString",
        "coordinates": [
          [
            [44.4709652302, 35.16131800654423],
            [44.6261987770001, 34.91636548500009],
            [46.01628344100014, 33.4927686030001],
            [47.2463942590002, 32.75470211200001],
            [48.40621303000009, 30.6810867340001],
            [49.14427952100011, 29.275245799],
            [50.90158068900019, 27.48279860700002],
            [53.1157801610007, 26.35812586000005],
            [54.69735121300008, 26.11210369600009],
            [55.96260805400014, 25.97151960300014],
            [57.8604933150003, 24.60082469100008],
            [59.40691834300016, 24.60082469100005],
            [61.4102416750006, 24.28451048100002],
            [63.9056093340007, 24.49538662100009],
            [65.6277644790004, 24.7414087851],
            [66.6543212450004, 24.86734870200006],
            [67.3067193040004, 25.59882531300008],
            [67.1485621980007, 26.62684649700005],
            [67.3067193040003, 27.81302478500008],
            [66.9706354550004, 29.47367438900007],
            [67.207871113, 30.26445991500008],
            [67.800960257, 30.69939195400006],
            [69.1848349270007, 31.82626132800009],
            [69.4418402230002, 33.17059672200001],
            [69.7581544330007, 33.585759123],
            [72.8224483450003, 34.6335499440008],
            [74.3249408440009, 34.8114766880007],
            [75.9658208100008, 33.64506803700005],
            [77.843936434, 31.8064916],
            [79.0498843600008, 30.95639725000017],
            [80.0779055440001, 30.30399919100003],
            [81.2640838320007, 29.888836799],
            [83.5573618570002, 28.66311922500006],
            [85.5540953090002, 28.20841754800005],
            [87.4124412950004, 27.93164261400009],
            [88.7963159650005, 27.87233370000003],
            [89.7057193190004, 28.12933899500007],
            [92.1176151730008, 27.971181899],
            [92.8886310600009, 28.208417548],
            [93.7189558620007, 28.4456532063],
            [94.6481288550007, 28.9794334360005],
            [95.1621394470008, 29.39459583700015],
            [95.3796054660001, 29.75044932300006],
            [95.6563804000005, 29.43413511300004],
            [95.854076782, 28.8015066920009],
            [96.1761534926455, 28.10645053297472],
            [93.809377670009, 22.96636009200003],
            [94.1375744370409, 18.78666976840001],
            [93.85963480468, 16.71756361643927],
            [92.5005855560004, 13.80482673600008],
            [92.5005855560001, 9.87845420800003],
            [93.1851756320004, 6.2641192100002],
            [94.5217269378039, 4.39582769482486],
            [94.5867091770003, 4.2381845990001],
            [96.0996704100002, 2.025695801000089],
            [99.6989135740002, -3.53662109399995],
            [99.6989162170002, -3.53662327099996],
            [99.698934555, -3.5366516117],
            [102.7932197700002, -6.92222943099996],
            [106.4506028260008, -9.11665926499994],
            [108.96134687, -10.04583225799991],
            [112.9139407115501, -10.51279980880604],
            [117.1756817409629, -11.00691471076688],
            [119.21390571155, -10.88338598527667],
            [120.8428993940006, -12.24026209199999],
            [123.660939829197, -10.82162162253156],
            [125.5756350742958, -9.89515618135505],
            [127.8609164958648, -9.03045510292375],
            [129.4667899272369, -8.78339765194339],
            [130.3314910056688, -8.6598689264531],
            [130.640312819393, -8.49001692890414],
            [131.180750993415, -8.33560602204137],
            [131.9528055277262, -7.74884457596293],
            [132.5550080644919, -6.76061477204137],
            [133.0645640571386, -5.84959042155112],
            [133.2035338733151, -4.876801708315844],
            [132.6986406205314, -4.09503693227182],
            [131.257956446842, -2.77681337498253],
            [128.802823027726, -2.15916974753153],
            [129.8682582850798, -1.371674122531517],
            [130.6403128193932, -0.738589404394257],
            [131.3814851723347, -0.383444318609937]
          ]
        ]
      }
    },
    {
      "type": "Feature",
      "properties": {
        "fillColor": "#ff0000",
        "outlineWidth": 2
      },
      "geometry": {
        "type": "MultiLineString",
        "coordinates": [
          [
            [67.5356019040002, -20.99020445099993],
            [67.5357055660007, -20.990112305],
            [66.6520996090007, -17.27886962899998],
            [66.6520996090002, -15.31579589799999],
            [67.6335659030008, -12.37098884599989],
            [67.6335659030006, -8.44461631799999],
            [67.6335659030005, -5.17263984699997],
            [67.6335659030003, -2.227861403999935],
            [67.1282335910002, -1.361578282999974],
            [65.3433227540009, 1.698486328000117],
            [62.72570800800019, 4.31610107400011],
            [60.762512207, 6.60650634800005],
            [56.8361206050002, 10.53289794900015],
            [55.200073242, 12.82330322300009],
            [51.2530409230002, 13.45953528500004],
            [47.98446075000015, 12.65117674700005],
            [43.90752204000013, 12.08884037400001],
            [42.7664794920001, 13.15051269500008],
            [42.29566583900006, 14.54203111400004],
            [42.23776776000017, 14.81552271500003],
            [42.17512869100006, 14.89828599300019],
            [38.63561853500019, 19.57494335000002],
            [37.5460918110008, 22.667793406],
            [36.87831736700016, 23.30042182700006],
            [36.1402508760005, 24.91713890200004],
            [34.5235338010001, 28.08028100500003],
            [34.94528608200016, 29.52126796300003],
            [35.4461594458701, 30.93644830573902],
            [35.6130605265, 33.10616234600014],
            [36.1753968990008, 34.44171123400009],
            [36.28083496900011, 35.46094591100006],
            [36.2809083340004, 35.46098552800007]
          ]
        ]
      }
    },
    {
      "type": "Feature",
      "properties": {
        "fillColor": "#ff0000",
        "outlineWidth": 2
      },
      "geometry": {
        "type": "MultiLineString",
        "coordinates": [
          [
            [36.280908334, 35.46098552800004],
            [38.03813613800007, 36.4098885420007],
            [39.900875376, 36.5153266127],
            [41.34186233400012, 36.4450345650005],
            [42.571973152, 36.1287203550008],
            [43.97781408600019, 35.63667602800005],
            [44.47096523021, 35.16131800654421]
          ]
        ]
      }
    },
    {
      "type": "Feature",
      "properties": {
        "fillColor": "#ff0000",
        "outlineWidth": 2
      },
      "geometry": {
        "type": "MultiLineString",
        "coordinates": [
          [
            [-1.864405417999818, -55.2908321309997],
            [-4.28771972699999, -52.9288940438],
            [-6.7359008789998, -50.8303833009995],
            [-12.09869384799985, -46.7544],
            [-16.41217040999984, -41.1541137699997],
            [-16.87847900399988, -37.4234008789996],
            [-14.89660644499983, -29.72900390599991],
            [-14.08050537099998, -24.4827880862],
            [-12.68157958999986, -19.7030029299995],
            [-12.6815795899997, -16.43872070299995],
            [-14.0805053709995, -14.34020996099996],
            [-14.0805053709999, -11.54217529299991],
            [-13.61419677699982, -10.60961914099985],
            [-12.91479492199995, -8.04479980499999],
            [-11.39916992199982, -4.19750976599993],
            [-13.4976806639999, -0.700073241999983],
            [-16.99511718799987, 0.34912109400002],
            [-22.94079589799992, 0.465698242000011],
            [-28.18701171899998, 0.69891357400003],
            [-31.91760253899988, 3.963073730000138],
            [-34.01611328099997, 6.64447021500004],
            [-38.5628051759993, 8.276672363],
            [-46.37377929699984, 15.7380981452],
            [-46.49041747999992, 18.65252685500009],
            [-46.4904174799999, 24.01531982400001],
            [-44.39190673799988, 29.84448242200006],
            [-38.8497841666668, 33.5039593287543],
            [-34.5262787745095, 35.60394766208835],
            [-32.48805480392142, 37.5186429071861],
            [-29.5233653921566, 39.00098761306873]
          ]
        ]
      }
    },
    {
      "type": "Feature",
      "properties": {
        "fillColor": "#ff0000",
        "outlineWidth": 2
      },
      "geometry": {
        "type": "MultiLineString",
        "coordinates": [
          [
            [-29.89395156862732, 39.1245163385581],
            [-29.8939515686274, 39.1862807013045],
            [-29.7966918951, 39.0778808590001],
            [-28.43859863299995, 39.01629638700006],
            [-25.99377441399997, 38.3045043955],
            [-24.70574509803903, 37.76570035816678],
            [-23.16163602941161, 37.4568785444415],
            [-15.87341308599993, 37.25732421900006],
            [-10.16088867199989, 36.7908935552],
            [-4.49551866399996, 35.75973532100003],
            [-2.99595499999981, 36.27521033000007],
            [-1.3115276401661, 37.33914022795896],
            [0.4249246070000655, 37.91535808700005],
            [4.78303150500012, 38.4308330970004],
            [10.55495055223592, 38.70567675369422],
            [14.39978213311826, 38.27332621447852],
            [15.2799243022359, 37.94906331006683],
            [16.15277006300008, 37.1538609150008],
            [17.20715076400018, 37.70741078200015],
            [17.65526256200018, 38.2346011330007],
            [17.78706015000015, 38.91994858900006],
            [18.27549589537321, 39.0917040208514],
            [19.0629915203732, 38.64391239094917],
            [19.95857478017717, 37.9953865821251],
            [21.90415220664772, 36.4667186041849],
            [23.26296818703993, 35.10790262379225],
            [24.89972379978505, 34.24320154536],
            [27.3555650110001, 34.7551448200002],
            [30.24234117723609, 35.16966698653738],
            [32.52203044500016, 34.9133019250005],
            [33.81364680400015, 35.07145903000003],
            [36.2809083340007, 35.46098552800007]
          ]
        ]
      }
    },
    {
      "type": "Feature",
      "properties": {
        "fillColor": "#ff0000",
        "outlineWidth": 2
      },
      "geometry": {
        "type": "MultiLineString",
        "coordinates": [
          [
            [131.3814851723349, -0.3834443186099372],
            [131.3814851723342, -0.383444318609939],
            [130.0946016980006, 0.944057606000119],
            [129.4971193010005, 2.490482634],
            [128.407592576, 4.10719970900002],
            [127.2895961404719, 5.28343596325284],
            [126.9653332360603, 6.95107375737044],
            [126.4394152680008, 9.90629356400004],
            [125.631056731009, 12.12049303600008],
            [125.1741584270009, 12.8234135030009],
            [123.8737555620007, 13.28031180700003],
            [122.1867464410009, 13.49118794700009],
            [120.2185691320005, 13.70206408800008],
            [119.2344804780003, 13.94808625100002],
            [119.1290424082, 15.28363513900011],
            [119.1290424089, 16.40830788700007],
            [119.5613302519912, 17.86020432722352],
            [120.0554451539522, 18.5704944987926],
            [120.7966175068936, 19.65137084683139],
            [121.228968046109, 22.183709719381],
            [121.8157294921872, 23.60429006251768],
            [123.3289563794424, 23.54252569977257],
            [125.8612952519916, 23.97487623898823],
            [127.3436399578738, 25.1175169497721],
            [129.4127461098345, 26.9395656507529],
            [131.1112660853242, 29.00867180271377],
            [132.3774355215994, 31.23218886153731],
            [133.736251501996, 32.06600775859618],
            [134.8788922127754, 32.83806229290986],
            [136.3857398800007, 32.8566468214],
            [138.1215212568932, 34.01158518506676],
            [140.1815104040005, 34.6139479900003],
            [141.827383021599, 35.19282862256676],
            [142.5608348291977, 36.31230769732165],
            [143.1321551845893, 37.2233320478111],
            [143.7034755399814, 38.45861930271388],
            [143.9042097189033, 39.8174352831059],
            [143.7652399027267, 40.6512541801641],
            [143.6262700865507, 41.0990458100664]
          ]
        ]
      }
    },
    {
      "type": "Feature",
      "properties": {
        "fillColor": "#ff0000",
        "outlineWidth": 2
      },
      "geometry": {
        "type": "MultiLineString",
        "coordinates": [
          [
            [-179.9996, 51.1900000000004],
            [-175.5249023442, 51.319091797],
            [-168.7624355874702, 52.42508582844921],
            [-164.1469116209991, 53.395874023],
            [-163.1608886720008, 53.8175048830001],
            [-156.810791015996, 55.1093139650006],
            [-153.012390315999, 56.61087599800018],
            [-151.7177124019993, 57.1226806640002],
            [-146.4782104489994, 59.6124877930009],
            [-146.1627105699991, 59.60266796300014],
            [-142.5975184080004, 59.491608087005],
            [-138.6888673879994, 58.4256123530007],
            [-137.385983713999, 57.7149485315],
            [-135.7823884859998, 56.0472094950001],
            [-133.6205222309999, 55.326586476],
            [-132.7359008789997, 55.03167724600013],
            [-132.5068374769, 54.81352617800014],
            [-128.5752153799994, 51.06912439000017],
            [-125.8648071289995, 48.4879150390002],
            [-125.0263061519995, 45.5839233400009],
            [-125.2103881839999, 43.00732421900003],
            [-123.73801393, 39.87838936000006],
            [-122.8177678109997, 38.037900925],
            [-121.1613308909994, 35.2771701810001],
            [-119.6889416699999, 32.8845386520006],
            [-117.8484532359999, 29.755712509003],
            [-116.7441632279997, 27.7311763760009],
            [-113.4312855729991, 23.49805641300005],
            [-110.6705548289993, 20.9213733680001],
            [-106.9895817759991, 18.34469413800007],
            [-104.1697998049991, 17.45428466800002],
            [-104.1697794259993, 17.4542782330001]
          ]
        ]
      }
    },
    {
      "type": "Feature",
      "properties": {
        "fillColor": "#ff0000",
        "outlineWidth": 2
      },
      "geometry": {
        "type": "MultiLineString",
        "coordinates": [
          [
            [143.62627008655, 41.099045810066],
            [145.4006618410006, 42.70214132400019],
            [147.7356262210008, 44.1925441200006],
            [150.1202706930003, 45.28550617000006],
            [152.6042753520009, 46.72622887200012],
            [154.293398520002, 48.1172714810002],
            [155.436040663, 49.25991362400027],
            [156.9264434580003, 50.55159604600014],
            [158.8142869990001, 51.5451979100008],
            [160.9505310060001, 52.7375201460003],
            [162.0434930560007, 53.7808021030005],
            [162.8383745470005, 54.7744039660009],
            [163.829675674001, 55.68612480200016],
            [168.0994952250003, 54.0407454280009],
            [168.3113962738176, 53.91825191368396],
            [171.578502126, 52.0296379570001],
            [174.9117118140008, 51.2720903019],
            [176.7900371549994, 50.845197678008],
            [179.4618405489995, 51.00236317899993],
            [179.9990000000006, 51.1900000000008]
          ]
        ]
      }
    },
    {
      "type": "Feature",
      "properties": {
        "fillColor": "#ff0000",
        "outlineWidth": 2
      },
      "geometry": {
        "type": "MultiLineString",
        "coordinates": [
          [
            [-29.64689411764691, 39.00098761306874],
            [-27.917491960784, 45.239188250323],
            [-27.42337705882336, 47.27741222091187],
            [-28.30358886699994, 49.31372070300026],
            [-30.98498535199996, 51.99511718800012],
            [-34.71557617199981, 54.21008300800024],
            [-34.0939282352938, 57.2832389856172],
            [-30.449830833334, 59.56852040718637],
            [-27.0527908823527, 61.91556619150013],
            [-23.6557509313724, 63.52143962287269],
            [-19.76459607843125, 63.52143962287266],
            [-18.1587226470586, 64.9420199660098],
            [-17.84990083333317, 65.7449566816962],
            [-18.8381306372549, 66.6714221228722],
            [-17.84990083333312, 68.524353005227],
            [-16.0624999999996, 70.5316772460005],
            [-12.78522308823517, 71.61257114248],
            [-12.97051617647046, 71.5508067797355],
            [-11.36464274509781, 71.4890424169909],
            [-10.12935549019598, 71.4272780542451],
            [-8.5861816409997, 71.4276733400007],
            [-7.562499999999821, 71.4276733400009],
            [-6.47869872999988, 71.4276733400004],
            [-5.27441406299986, 71.4276733400001],
            [-4.07000732399994, 71.487915039],
            [-3.10662841799985, 71.487915039],
            [-1.721679687999882, 71.6687011720002],
            [-0.818420409999871, 71.9094848630002],
            [0.0848999020001328, 72.0900878910008],
            [1.46990966800023, 72.3308715820001],
            [2.25268554700029, 72.5117187499998],
            [3.456909180000081, 72.692321777],
            [4.420288086000148, 72.8729248050002],
            [5.20312500000016, 72.9331054690003],
            [5.986083984000178, 73.0535278320006],
            [6.889282227000083, 73.2341308590003],
            [7.49127197300025, 73.4149169920006],
            [8.09350585900013, 73.7761230470005],
            [8.45489502000019, 74.0770874020002],
            [8.45489502000019, 74.3181152340006],
            [8.4548950200001, 74.7996826170008],
            [8.15368652300025, 75.1610717770009],
            [7.73229980499997, 75.5222778319992],
            [7.4310913090009, 75.9439086910001],
            [7.250488281000056, 76.3052978520004],
            [7.25048828100009, 76.8471069340001],
            [7.55169677700023, 77.328918456999],
            [7.67211914100019, 77.931091309005],
            [7.61187744100015, 78.3524780270001],
            [7.0698852540005, 78.8944702150008],
            [6.10650634800026, 79.3159179690006],
            [5.32348632800017, 79.4967041020003],
            [3.75787353500027, 79.8579101560006],
            [2.43328857400007, 80.0988769530001],
            [0.927917480000245, 80.3999023440002],
            [0.002, 80.5795288090005],
            [-1.38787841799993, 81.0653076170009],
            [-2.89318847699991, 81.6071166990007],
            [-4.51910400399987, 81.9083251950008],
            [-5.66320800799977, 82.3297119140007],
            [-6.20507812499988, 83.1124877930003],
            [-5.06097412099973, 83.8350830080009],
            [-1.809387206999878, 84.3168945310002],
            [-0.605102538999853, 84.1964721680003],
            [0.094513199, 84.381834826],
            [0.167923966042508, 84.4012849528409],
            [0.64049741800016, 84.4093302790004],
            [1.54528808600003, 84.45489502],
            [6.7640991210008, 84.6956787110006],
            [21.6975097660001, 85.6591186520007],
            [42.09051513700019, 86.6226806640009],
            [62.9652709960005, 87.1846923830006],
            [68.415608516, 86.8946565492],
            [70.5122548340001, 86.783132809],
            [79.3490259510002, 86.1203749749994],
            [83.358276367002, 85.8197021480005],
            [99.817321777008, 85.0169067380001],
            [104.3936767580003, 84.6154785160004],
            [110.575683594, 84.1337280270002],
            [113.4661254880008, 83.81258],
            [114.119513665, 83.6355243170006],
            [117.3198892510005, 82.7687559300008],
            [117.6659636830905, 82.6097487581953],
            [118.3078487642059, 82.3148285864463],
            [118.3078572910004, 82.3148246690002],
            [120.2905273440007, 81.4039306640004],
            [124.1442871090002, 79.5573120120007],
            [126.9545288090008, 78.2727050780004],
            [132.2500036880226, 76.3037587940614],
            [129.801118851, 72.966253281],
            [128.9109106625307, 71.0856439228121],
            [127.7065055890015, 69.665063579672],
            [127.4594481380207, 68.615069413008],
            [127.6447412262563, 67.4724287022231],
            [127.644741226256, 67.4724287022237],
            [127.7373877703736, 66.9474316188909],
            [128.2315026723342, 65.4033225502637],
            [128.8491462997858, 65.1253829179108],
            [128.8491462997855, 65.1253829179105],
            [130.4550197311588, 64.7239145600664],
            [132.4187011720006, 64.1318969730007],
            [135.4579331135111, 63.82833130021],
            [136.4770450988058, 63.643038212026],
            [137.6196858095894, 63.0253945845764],
            [137.6814501723346, 61.2342280649689],
            [137.094688726256, 59.4121793639882],
            [137.8049788978246, 57.0342513983024],
            [140.9858435791976, 57.57468957232171],
            [142.2211308340994, 57.23498557722372],
            [143.178478456648, 56.58645976840017],
            [143.9196508095891, 54.8261754301644],
            [144.7225875252755, 52.5408940085962],
            [145.741699510578, 48.5879747929099],
            [145.6181707850797, 47.5688628076155],
            [144.0740617164521, 47.53798062624324],
            [144.1049438978255, 45.6232853811455],
            [143.1475962752756, 42.5968316066358],
            [143.6262700865504, 41.0990458100666]
          ]
        ]
      }
    },
    {
      "type": "Feature",
      "properties": {
        "fillColor": "#ff0000",
        "outlineWidth": 2
      },
      "geometry": {
        "type": "MultiLineString",
        "coordinates": [
          [
            [-113.9808656919994, -30.09446761599996],
            [-110.8052667647055, -32.70743753399017],
            [-104.0729512254901, -35.1162476810482],
            [-97.5259287745099, -36.536828024186],
            [-93.5112451960788, -38.0809370928135],
            [-89.4347972549017, -40.675040328107],
            [-84.8024700490194, -42.5279712104602],
            [-81.2819013725481, -44.81325263202939],
            [-77.6995683333334, -45.4926606222257],
            [-76.4642810784315, -45.8014824359509]
          ]
        ]
      }
    },
    {
      "type": "Feature",
      "properties": {
        "fillColor": "#ff0000",
        "outlineWidth": 2
      },
      "geometry": {
        "type": "MultiLineString",
        "coordinates": [
          [
            [140.1815104040003, 34.6139479900003],
            [140.059378138021, 31.18007518047118],
            [141.1711366674327, 26.60951233733391],
            [142.962303187046, 21.91542076870642],
            [144.0740617164524, 18.88896699419669],
            [144.1358260791975, 15.86251321968675],
            [143.5181824517461, 13.4537030726279],
            [141.9740733831199, 12.15665145498089],
            [139.8740850497858, 11.35371473929466],
            [138.7005621577, 9.80960567066712],
            [137.5270392654726, 8.01843915105926],
            [135.859401471357, 7.33903116086327],
            [134.624114216455, 6.9684449843921],
            [133.0800051478258, 5.17727846478472],
            [132.7094189713547, 2.336117778510232],
            [132.863829878212, 0.1955965821253999]
          ]
        ]
      }
    }
  ]
}
